DTUSAT-2                
1 40030U 14033W   26176.49356363  .00007869  00000+0  42368-3 0  9994
2 40030  98.0865 174.7483 0007465 194.0567 166.0457 15.15112737653942
QB50P2                  
1 40032U 14033Y   26176.48706463  .00008291  00000+0  44421-3 0  9997
2 40032  98.0752 173.8841 0008726 138.5808 221.6085 15.15257209653926
PERSEUS-M1              
1 40039U 14033AF  26176.80033404  .00001981  00000+0  18355-3 0  9994
2 40039  97.9648 121.0735 0009802 268.9220  91.0877 14.95660102651927
POLYITAN-1              
1 40042U 14033AJ  26176.60092590  .00023755  00000+0  73319-3 0  9991
2 40042  98.0941 203.6586 0008872 118.2869 241.9268 15.33535945654889
TIGRISAT                
1 40043U 14033AK  26176.73963525  .00001816  00000+0  21357-3 0  9990
2 40043  97.7840 326.5556 0050178  47.8040 312.7418 14.85191236646893
CANX-4                  
1 40055U 14034C   26176.59567201  .00000890  00000+0  12133-3 0  9992
2 40055  98.3112  52.2170 0012516 350.4550   9.6421 14.81278652645779
CANX-5                  
1 40056U 14034D   26176.59400729  .00000895  00000+0  12201-3 0  9995
2 40056  98.3115  52.2594 0012520 350.6601   9.4375 14.81295937636587
GONETS-M 10             
1 40063U 14036C   26176.84423014  .00000079  00000+0  49706-3 0  9999
2 40063  82.5114 302.2971 0022896 122.4647 237.8650 12.42946203543324
METEOR-M 2              
1 40069U 14037A   26176.87396059 -.00000162  00000+0 -54893-4 0  9996
2 40069  98.5113 152.3044 0006364  22.6753 337.4705 14.21462780620553
DX1                     
1 40071U 14037C   26176.89011980  .00000970  00000+0  10709-3 0  9990
2 40071  98.3864 139.1195 0005833 240.4371 119.6264 14.90005993647401
UKUBE-1                 
1 40074U 14037F   26176.56399135  .00010578  00000+0  59185-3 0  9994
2 40074  98.4236 180.7162 0002994 120.0647 240.0878 15.13673533649823
GAOFEN-2                
1 40118U 14049A   26176.82498944  .00000796  00000+0  10994-3 0  9999
2 40118  98.0109 241.0243 0006682 194.7882 165.3135 14.80907827640516
BRITE-PL2 (HEWELIUSZ)   
1 40119U 14049B   26176.54091931  .00001913  00000+0  18180-3 0  9991
2 40119  97.9105 288.6055 0015424  83.0154 277.2819 14.94624267642697
CBERS 4                 
1 40336U 14079A   26176.88935301  .00000118  00000+0  55596-4 0  9999
2 40336  98.3533 233.4480 0001590  55.0498 305.0837 14.35511060605204
SMAP                    
1 40376U 15003A   26176.83204595  .00000401  00000+0  86739-4 0  9998
2 40376  98.1276 183.8040 0001419  98.6652 261.4711 14.63373459608887
GONETS-M 11             
1 40552U 15020A   26176.86309647  .00000006  00000+0 -28578-4 0  9999
2 40552  82.4871  25.5850 0016197 347.0511  13.0150 12.42877373509815
GONETS-M 12             
1 40553U 15020B   26176.83649223  .00000006  00000+0 -26615-4 0  9994
2 40553  82.4905  26.7277 0014930 331.9729  28.0545 12.42891170509800
GONETS-M 13             
1 40554U 15020C   26176.89061696  .00000023  00000+0  98188-4 0  9995
2 40554  82.4866  25.3065 0013259 316.6363  43.3672 12.42870837509789
DMC3-FM1                
1 40715U 15032A   26176.89323833  .00000143  00000+0  22370-4 0  9994
2 40715  97.6459  41.7265 0006551  36.3851 323.7809 14.85745215591208
DMC3-FM2                
1 40716U 15032B   26176.84790980  .00000680  00000+0  84201-4 0  9998
2 40716  97.6513  43.2624 0007124  41.0258 319.1492 14.85752363591194
DMC3-FM3                
1 40717U 15032C   26176.87129561  .00001036  00000+0  12516-3 0  9998
2 40717  97.6565  45.0437 0006410  42.3871 317.7839 14.85744422591204
CARBONITE 1 (CBNT-1)    
1 40718U 15032D   26176.81549132  .00001501  00000+0  18794-3 0  9994
2 40718  97.6513 354.5210 0012910 266.8448  93.1289 14.83610389590621
LILACSAT-2              
1 40908U 15049K   26176.84985041  .00020233  00000+0  34078-3 0  9995
2 40908  97.4640 214.0215 0006309 206.2175 153.8759 15.51716024597099
COSMOS 2507 (RODNIK-S *)
1 40920U 15050A   26176.84513003  .00000045  00000+0  25219-3 0  9992
2 40920  82.4923  74.2795 0009804 338.1678  21.8983 12.42926941487938
COSMOS 2508 (RODNIK-S *)
1 40921U 15050B   26176.80023493 -.00000012  00000+0 -15960-3 0  9996
2 40921  82.4875  72.8092 0014832   8.9787 351.1555 12.42914244487914
COSMOS 2509 (RODNIK-S *)
1 40922U 15050C   26176.82078630  .00000014  00000+0  28428-4 0  9996
2 40922  82.4884  72.8996 0015467  25.3018 334.8816 12.42883839487950
