OBJECT_NAME,OBJECT_ID,EPOCH,MEAN_MOTION,ECCENTRICITY,INCLINATION,RA_OF_ASC_NODE,ARG_OF_PERICENTER,MEAN_ANOMALY,EPHEMERIS_TYPE,CLASSIFICATION_TYPE,NORAD_CAT_ID,ELEMENT_SET_NO,REV_AT_EPOCH,BSTAR,MEAN_MOTION_DOT,MEAN_MOTION_DDOT
DTUSAT-2,2014-033W,2026-06-25T11:50:43.897632,15.15112737,.0007465,98.0865,174.7483,194.0567,166.0457,0,U,40030,999,65394,.42368E-3,.7869E-4,0
QB50P2,2014-033Y,2026-06-25T11:41:22.384032,15.15257209,.0008726,98.0752,173.8841,138.5808,221.6085,0,U,40032,999,65392,.44421E-3,.8291E-4,0
PERSEUS-M1,2014-033AF,2026-06-25T19:12:28.861056,14.95660102,.0009802,97.9648,121.0735,268.9220,91.0877,0,U,40039,999,65192,.18355E-3,.1981E-4,0
POLYITAN-1,2014-033AJ,2026-06-25T14:25:19.997760,15.33535945,.0008872,98.0941,203.6586,118.2869,241.9268,0,U,40042,999,65488,.73319E-3,.23755E-3,0
TIGRISAT,2014-033AK,2026-06-25T17:45:04.485600,14.85191236,.0050178,97.7840,326.5556,47.8040,312.7418,0,U,40043,999,64689,.21357E-3,.1816E-4,0
CANX-4,2014-034C,2026-06-25T14:17:46.061664,14.81278652,.0012516,98.3112,52.2170,350.4550,9.6421,0,U,40055,999,64577,.12133E-3,.89E-5,0
CANX-5,2014-034D,2026-06-25T14:15:22.229856,14.81295937,.001252,98.3115,52.2594,350.6601,9.4375,0,U,40056,999,63658,.12201E-3,.895E-5,0
GONETS-M 10,2014-036C,2026-06-25T20:15:41.484096,12.42946203,.0022896,82.5114,302.2971,122.4647,237.8650,0,U,40063,999,54332,.49706E-3,.79E-6,0
METEOR-M 2,2014-037A,2026-06-25T20:58:30.194976,14.21462780,.0006364,98.5113,152.3044,22.6753,337.4705,0,U,40069,999,62055,-.54893E-4,-.162E-5,0
DX1,2014-037C,2026-06-25T21:21:46.350720,14.90005993,.0005833,98.3864,139.1195,240.4371,119.6264,0,U,40071,999,64740,.10709E-3,.97E-5,0
UKUBE-1,2014-037F,2026-06-25T13:32:08.852640,15.13673533,.0002994,98.4236,180.7162,120.0647,240.0878,0,U,40074,999,64982,.59185E-3,.10578E-3,0
GAOFEN-2,2014-049A,2026-06-25T19:47:59.087616,14.80907827,.0006682,98.0109,241.0243,194.7882,165.3135,0,U,40118,999,64051,.10994E-3,.796E-5,0
BRITE-PL2 (HEWELIUSZ),2014-049B,2026-06-25T12:58:55.428384,14.94624267,.0015424,97.9105,288.6055,83.0154,277.2819,0,U,40119,999,64269,.1818E-3,.1913E-4,0
CBERS 4,2014-079A,2026-06-25T21:20:40.100064,14.35511060,.000159,98.3533,233.4480,55.0498,305.0837,0,U,40336,999,60520,.55596E-4,.118E-5,0
SMAP,2015-003A,2026-06-25T19:58:08.770080,14.63373459,.0001419,98.1276,183.8040,98.6652,261.4711,0,U,40376,999,60888,.86739E-4,.401E-5,0
GONETS-M 11,2015-020A,2026-06-25T20:42:51.535008,12.42877373,.0016197,82.4871,25.5850,347.0511,13.0150,0,U,40552,999,50981,-.28578E-4,.6E-7,0
GONETS-M 12,2015-020B,2026-06-25T20:04:32.928672,12.42891170,.001493,82.4905,26.7277,331.9729,28.0545,0,U,40553,999,50980,-.26615E-4,.6E-7,0
GONETS-M 13,2015-020C,2026-06-25T21:22:29.305344,12.42870837,.0013259,82.4866,25.3065,316.6363,43.3672,0,U,40554,999,50978,.98188E-4,.23E-6,0
DMC3-FM1,2015-032A,2026-06-25T21:26:15.791712,14.85745215,.0006551,97.6459,41.7265,36.3851,323.7809,0,U,40715,999,59120,.2237E-4,.143E-5,0
DMC3-FM2,2015-032B,2026-06-25T20:20:59.406720,14.85752363,.0007124,97.6513,43.2624,41.0258,319.1492,0,U,40716,999,59119,.84201E-4,.68E-5,0
DMC3-FM3,2015-032C,2026-06-25T20:54:39.940704,14.85744422,.000641,97.6565,45.0437,42.3871,317.7839,0,U,40717,999,59120,.12516E-3,.1036E-4,0
CARBONITE 1 (CBNT-1),2015-032D,2026-06-25T19:34:18.450048,14.83610389,.001291,97.6513,354.5210,266.8448,93.1289,0,U,40718,999,59062,.18794E-3,.1501E-4,0
LILACSAT-2,2015-049K,2026-06-25T20:23:47.075424,15.51716024,.0006309,97.4640,214.0215,206.2175,153.8759,0,U,40908,999,59709,.34078E-3,.20233E-3,0
COSMOS 2507 (RODNIK-S 13),2015-050A,2026-06-25T20:16:59.234592,12.42926941,.0009804,82.4923,74.2795,338.1678,21.8983,0,U,40920,999,48793,.25219E-3,.45E-6,0
COSMOS 2508 (RODNIK-S 14),2015-050B,2026-06-25T19:12:20.297952,12.42914244,.0014832,82.4875,72.8092,8.9787,351.1555,0,U,40921,999,48791,-.1596E-3,-.12E-6,0
COSMOS 2509 (RODNIK-S 15),2015-050C,2026-06-25T19:41:55.936320,12.42883839,.0015467,82.4884,72.8996,25.3018,334.8816,0,U,40922,999,48795,.28428E-4,.14E-6,0
